[{"OBJECT_NAME":"AMOS-5","OBJECT_ID":"2011-074A","EPOCH":"2026-03-07T01:06:21.643776","MEAN_MOTION":1.00200812,"ECCENTRICITY":0.0002148,"INCLINATION":8.5768,"RA_OF_ASC_NODE":61.8635,"ARG_OF_PERICENTER":302.4991,"MEAN_ANOMALY":288.8123,"EPHEMERIS_TYPE":0,"CLASSIFICATION_TYPE":"U","NORAD_CAT_ID":37950,"ELEMENT_SET_NO":999,"REV_AT_EPOCH":5197,"BSTAR":0,"MEAN_MOTION_DOT":-3.53e-6,"MEAN_MOTION_DDOT":0},{"OBJECT_NAME":"LUCH-5A","OBJECT_ID":"2011-074B","EPOCH":"2026-03-06T19:53:07.888992","MEAN_MOTION":1.00276047,"ECCENTRICITY":0.0003865,"INCLINATION":8.4932,"RA_OF_ASC_NODE":75.3103,"ARG_OF_PERICENTER":248.4778,"MEAN_ANOMALY":306.164,"EPHEMERIS_TYPE":0,"CLASSIFICATION_TYPE":"U","NORAD_CAT_ID":37951,"ELEMENT_SET_NO":999,"REV_AT_EPOCH":5202,"BSTAR":0,"MEAN_MOTION_DOT":-4.9e-7,"MEAN_MOTION_DDOT":0},{"OBJECT_NAME":"BREEZE-M R/B","OBJECT_ID":"2011-074C","EPOCH":"2026-03-07T03:54:38.740032","MEAN_MOTION":0.89625452,"ECCENTRICITY":0.0796496,"INCLINATION":11.1352,"RA_OF_ASC_NODE":51.0371,"ARG_OF_PERICENTER":178.2722,"MEAN_ANOMALY":213.1359,"EPHEMERIS_TYPE":0,"CLASSIFICATION_TYPE":"U","NORAD_CAT_ID":37952,"ELEMENT_SET_NO":999,"REV_AT_EPOCH":4623,"BSTAR":0,"MEAN_MOTION_DOT":-1.83e-6,"MEAN_MOTION_DDOT":0},{"OBJECT_NAME":"NIGCOMSAT 1R","OBJECT_ID":"2011-077A","EPOCH":"2026-03-07T02:08:28.209696","MEAN_MOTION":1.00268849,"ECCENTRICITY":0.0002806,"INCLINATION":0.0604,"RA_OF_ASC_NODE":250.705,"ARG_OF_PERICENTER":70.5825,"MEAN_ANOMALY":278.1474,"EPHEMERIS_TYPE":0,"CLASSIFICATION_TYPE":"U","NORAD_CAT_ID":38014,"ELEMENT_SET_NO":999,"REV_AT_EPOCH":5193,"BSTAR":0,"MEAN_MOTION_DOT":1.42e-6,"MEAN_MOTION_DDOT":0},{"OBJECT_NAME":"WGS F4 (USA 233)","OBJECT_ID":"2012-003A","EPOCH":"2026-03-06T23:43:38.777664","MEAN_MOTION":1.00273531,"ECCENTRICITY":5.34e-5,"INCLINATION":0.0096,"RA_OF_ASC_NODE":154.4349,"ARG_OF_PERICENTER":131.8315,"MEAN_ANOMALY":322.7162,"EPHEMERIS_TYPE":0,"CLASSIFICATION_TYPE":"U","NORAD_CAT_ID":38070,"ELEMENT_SET_NO":999,"REV_AT_EPOCH":4312,"BSTAR":0,"MEAN_MOTION_DOT":-2.18e-6,"MEAN_MOTION_DDOT":0},{"OBJECT_NAME":"DELTA 4 R/B","OBJECT_ID":"2012-003B","EPOCH":"2026-03-07T04:39:02.870208","MEAN_MOTION":1.16579867,"ECCENTRICITY":0.8257551,"INCLINATION":20.0467,"RA_OF_ASC_NODE":117.3003,"ARG_OF_PERICENTER":300.525,"MEAN_ANOMALY":3.6486,"EPHEMERIS_TYPE":0,"CLASSIFICATION_TYPE":"U","NORAD_CAT_ID":38071,"ELEMENT_SET_NO":999,"REV_AT_EPOCH":5977,"BSTAR":0.0011759,"MEAN_MOTION_DOT":8.45e-6,"MEAN_MOTION_DDOT":0},{"OBJECT_NAME":"FENGYUN 2F AKM","OBJECT_ID":"2012-002C","EPOCH":"2026-03-06T19:00:50.402592","MEAN_MOTION":0.99398909,"ECCENTRICITY":0.0063566,"INCLINATION":8.9266,"RA_OF_ASC_NODE":58.8324,"ARG_OF_PERICENTER":205.7655,"MEAN_ANOMALY":168.583,"EPHEMERIS_TYPE":0,"CLASSIFICATION_TYPE":"U","NORAD_CAT_ID":38072,"ELEMENT_SET_NO":999,"REV_AT_EPOCH":5082,"BSTAR":0,"MEAN_MOTION_DOT":-2.29e-6,"MEAN_MOTION_DDOT":0},{"OBJECT_NAME":"SES-4","OBJECT_ID":"2012-007A","EPOCH":"2026-03-06T10:32:38.658048","MEAN_MOTION":1.00270086,"ECCENTRICITY":0.00021933,"INCLINATION":0.0353,"RA_OF_ASC_NODE":65.8553,"ARG_OF_PERICENTER":272.1207,"MEAN_ANOMALY":322.3456,"EPHEMERIS_TYPE":0,"CLASSIFICATION_TYPE":"U","NORAD_CAT_ID":38087,"ELEMENT_SET_NO":999,"REV_AT_EPOCH":5119,"BSTAR":0,"MEAN_MOTION_DOT":-1.73e-6,"MEAN_MOTION_DDOT":0},{"OBJECT_NAME":"BEIDOU-2 G5","OBJECT_ID":"2012-008A","EPOCH":"2026-03-07T03:55:47.918784","MEAN_MOTION":1.00267855,"ECCENTRICITY":0.001404,"INCLINATION":3.3193,"RA_OF_ASC_NODE":70.3003,"ARG_OF_PERICENTER":254.674,"MEAN_ANOMALY":317.6688,"EPHEMERIS_TYPE":0,"CLASSIFICATION_TYPE":"U","NORAD_CAT_ID":38091,"ELEMENT_SET_NO":999,"REV_AT_EPOCH":5134,"BSTAR":0,"MEAN_MOTION_DOT":5.5e-7,"MEAN_MOTION_DDOT":0},{"OBJECT_NAME":"MUOS-1","OBJECT_ID":"2012-009A","EPOCH":"2026-03-07T01:09:14.825664","MEAN_MOTION":1.00273558,"ECCENTRICITY":0.005728,"INCLINATION":5.2667,"RA_OF_ASC_NODE":47.1933,"ARG_OF_PERICENTER":357.8474,"MEAN_ANOMALY":37.0226,"EPHEMERIS_TYPE":0,"CLASSIFICATION_TYPE":"U","NORAD_CAT_ID":38093,"ELEMENT_SET_NO":999,"REV_AT_EPOCH":5142,"BSTAR":0,"MEAN_MOTION_DOT":-1.29e-6,"MEAN_MOTION_DDOT":0},{"OBJECT_NAME":"INTELSAT 22 (IS-22)","OBJECT_ID":"2012-011A","EPOCH":"2026-03-07T01:54:38.687616","MEAN_MOTION":1.00271363,"ECCENTRICITY":0.0001654,"INCLINATION":0.0084,"RA_OF_ASC_NODE":154.7123,"ARG_OF_PERICENTER":210.503,"MEAN_ANOMALY":260.3369,"EPHEMERIS_TYPE":0,"CLASSIFICATION_TYPE":"U","NORAD_CAT_ID":38098,"ELEMENT_SET_NO":999,"REV_AT_EPOCH":616,"BSTAR":0,"MEAN_MOTION_DOT":-6.1e-7,"MEAN_MOTION_DDOT":0},{"OBJECT_NAME":"BREEZE-M R/B","OBJECT_ID":"2012-011B","EPOCH":"2026-03-04T06:45:30.508704","MEAN_MOTION":1.11833625,"ECCENTRICITY":0.76124297,"INCLINATION":25.4178,"RA_OF_ASC_NODE":172.2117,"ARG_OF_PERICENTER":355.9039,"MEAN_ANOMALY":0.1936,"EPHEMERIS_TYPE":0,"CLASSIFICATION_TYPE":"U","NORAD_CAT_ID":38099,"ELEMENT_SET_NO":999,"REV_AT_EPOCH":5680,"BSTAR":0,"MEAN_MOTION_DOT":-4.01e-6,"MEAN_MOTION_DDOT":0},{"OBJECT_NAME":"COSMOS 2479","OBJECT_ID":"2012-012A","EPOCH":"2026-03-06T05:28:08.996160","MEAN_MOTION":1.0034026,"ECCENTRICITY":0.00070378,"INCLINATION":8.6139,"RA_OF_ASC_NODE":57.3609,"ARG_OF_PERICENTER":242.5101,"MEAN_ANOMALY":320.7668,"EPHEMERIS_TYPE":0,"CLASSIFICATION_TYPE":"U","NORAD_CAT_ID":38101,"ELEMENT_SET_NO":999,"REV_AT_EPOCH":5105,"BSTAR":0,"MEAN_MOTION_DOT":9.4e-7,"MEAN_MOTION_DDOT":0},{"OBJECT_NAME":"SL-12 R/B(2)","OBJECT_ID":"2012-012D","EPOCH":"2026-03-07T02:51:39.068352","MEAN_MOTION":1.00325041,"ECCENTRICITY":0.0012714,"INCLINATION":8.6038,"RA_OF_ASC_NODE":57.5619,"ARG_OF_PERICENTER":297.6023,"MEAN_ANOMALY":46.4334,"EPHEMERIS_TYPE":0,"CLASSIFICATION_TYPE":"U","NORAD_CAT_ID":38104,"ELEMENT_SET_NO":999,"REV_AT_EPOCH":5103,"BSTAR":0,"MEAN_MOTION_DOT":1.14e-6,"MEAN_MOTION_DDOT":0},{"OBJECT_NAME":"APSTAR-7","OBJECT_ID":"2012-013A","EPOCH":"2026-03-07T03:47:38.703840","MEAN_MOTION":1.00271953,"ECCENTRICITY":0.0002369,"INCLINATION":0.0088,"RA_OF_ASC_NODE":160.7322,"ARG_OF_PERICENTER":189.7767,"MEAN_ANOMALY":307.7543,"EPHEMERIS_TYPE":0,"CLASSIFICATION_TYPE":"U","NORAD_CAT_ID":38107,"ELEMENT_SET_NO":999,"REV_AT_EPOCH":5078,"BSTAR":0,"MEAN_MOTION_DOT":-1.04e-6,"MEAN_MOTION_DDOT":0},{"OBJECT_NAME":"YAHSAT 1B","OBJECT_ID":"2012-016A","EPOCH":"2026-03-06T10:45:38.552832","MEAN_MOTION":1.0027384,"ECCENTRICITY":0.00032608,"INCLINATION":0.0885,"RA_OF_ASC_NODE":91.6403,"ARG_OF_PERICENTER":260.3305,"MEAN_ANOMALY":21.2016,"EPHEMERIS_TYPE":0,"CLASSIFICATION_TYPE":"U","NORAD_CAT_ID":38245,"ELEMENT_SET_NO":999,"REV_AT_EPOCH":4457,"BSTAR":0,"MEAN_MOTION_DOT":1.22e-6,"MEAN_MOTION_DDOT":0},{"OBJECT_NAME":"AEHF-2 (USA 235)","OBJECT_ID":"2012-019A","EPOCH":"2026-03-06T19:00:50.402592","MEAN_MOTION":1.00273233,"ECCENTRICITY":0.0003141,"INCLINATION":6.4128,"RA_OF_ASC_NODE":58.2304,"ARG_OF_PERICENTER":277.3566,"MEAN_ANOMALY":97.6324,"EPHEMERIS_TYPE":0,"CLASSIFICATION_TYPE":"U","NORAD_CAT_ID":38254,"ELEMENT_SET_NO":999,"REV_AT_EPOCH":596,"BSTAR":0,"MEAN_MOTION_DOT":-1.37e-6,"MEAN_MOTION_DDOT":0},{"OBJECT_NAME":"JCSAT-13","OBJECT_ID":"2012-023A","EPOCH":"2026-03-07T00:48:50.844384","MEAN_MOTION":1.00272518,"ECCENTRICITY":0.0002344,"INCLINATION":0.0488,"RA_OF_ASC_NODE":271.9544,"ARG_OF_PERICENTER":126.1487,"MEAN_ANOMALY":262.8562,"EPHEMERIS_TYPE":0,"CLASSIFICATION_TYPE":"U","NORAD_CAT_ID":38331,"ELEMENT_SET_NO":999,"REV_AT_EPOCH":5051,"BSTAR":0,"MEAN_MOTION_DOT":-3.59e-6,"MEAN_MOTION_DDOT":0},{"OBJECT_NAME":"VINASAT-2","OBJECT_ID":"2012-023B","EPOCH":"2026-03-07T00:51:05.628384","MEAN_MOTION":1.00272912,"ECCENTRICITY":0.0002806,"INCLINATION":0.0442,"RA_OF_ASC_NODE":321.3701,"ARG_OF_PERICENTER":44.9587,"MEAN_ANOMALY":303.0274,"EPHEMERIS_TYPE":0,"CLASSIFICATION_TYPE":"U","NORAD_CAT_ID":38332,"ELEMENT_SET_NO":999,"REV_AT_EPOCH":4563,"BSTAR":0,"MEAN_MOTION_DOT":-3.31e-6,"MEAN_MOTION_DDOT":0},{"OBJECT_NAME":"NIMIQ 6","OBJECT_ID":"2012-026A","EPOCH":"2026-03-06T08:23:22.193952","MEAN_MOTION":1.00270837,"ECCENTRICITY":0.00025883,"INCLINATION":0.0509,"RA_OF_ASC_NODE":279.5517,"ARG_OF_PERICENTER":64.8171,"MEAN_ANOMALY":214.4242,"EPHEMERIS_TYPE":0,"CLASSIFICATION_TYPE":"U","NORAD_CAT_ID":38342,"ELEMENT_SET_NO":999,"REV_AT_EPOCH":4938,"BSTAR":0,"MEAN_MOTION_DOT":-1.78e-6,"MEAN_MOTION_DDOT":0},{"OBJECT_NAME":"ZHONGXING-2A","OBJECT_ID":"2012-028A","EPOCH":"2026-03-07T02:24:19.190304","MEAN_MOTION":1.00272002,"ECCENTRICITY":0.0001128,"INCLINATION":1.1905,"RA_OF_ASC_NODE":85.3323,"ARG_OF_PERICENTER":249.0834,"MEAN_ANOMALY":324.7332,"EPHEMERIS_TYPE":0,"CLASSIFICATION_TYPE":"U","NORAD_CAT_ID":38352,"ELEMENT_SET_NO":999,"REV_AT_EPOCH":5027,"BSTAR":0,"MEAN_MOTION_DOT":-2.95e-6,"MEAN_MOTION_DDOT":0},{"OBJECT_NAME":"INTELSAT 19 (IS-19)","OBJECT_ID":"2012-030A","EPOCH":"2026-03-07T02:43:24.857760","MEAN_MOTION":1.00272949,"ECCENTRICITY":0.0003015,"INCLINATION":0.0199,"RA_OF_ASC_NODE":139.9291,"ARG_OF_PERICENTER":209.7229,"MEAN_ANOMALY":22.0118,"EPHEMERIS_TYPE":0,"CLASSIFICATION_TYPE":"U","NORAD_CAT_ID":38356,"ELEMENT_SET_NO":999,"REV_AT_EPOCH":4942,"BSTAR":0,"MEAN_MOTION_DOT":-5.9e-7,"MEAN_MOTION_DDOT":0},{"OBJECT_NAME":"BLOCK DM-SL R/B","OBJECT_ID":"2012-030B","EPOCH":"2026-03-06T16:55:32.778336","MEAN_MOTION":2.25340266,"ECCENTRICITY":0.7090191,"INCLINATION":0.2655,"RA_OF_ASC_NODE":94.7348,"ARG_OF_PERICENTER":261.1489,"MEAN_ANOMALY":0.4215,"EPHEMERIS_TYPE":0,"CLASSIFICATION_TYPE":"U","NORAD_CAT_ID":38357,"ELEMENT_SET_NO":999,"REV_AT_EPOCH":11332,"BSTAR":0.004075,"MEAN_MOTION_DOT":-7.4e-7,"MEAN_MOTION_DDOT":0},{"OBJECT_NAME":"DELTA 4 R/B","OBJECT_ID":"2012-034B","EPOCH":"2026-03-06T13:01:33.125664","MEAN_MOTION":1.0315214,"ECCENTRICITY":0.0193681,"INCLINATION":6.7298,"RA_OF_ASC_NODE":60.7451,"ARG_OF_PERICENTER":177.8195,"MEAN_ANOMALY":182.4314,"EPHEMERIS_TYPE":0,"CLASSIFICATION_TYPE":"U","NORAD_CAT_ID":38529,"ELEMENT_SET_NO":999,"REV_AT_EPOCH":2558,"BSTAR":0,"MEAN_MOTION_DOT":-2.73e-6,"MEAN_MOTION_DDOT":0}]
